start=new Date('2021-12-03T00:00:00.000Z').valueOf();
sats=[{"RA_OF_ASC_NODE":"271.3915","MEAN_MOTION":"15.06390594","OBJECT_NAME":"STARLINK-1561","NORAD_CAT_ID":"46056","REF_FRAME":"TEME","OBJECT_ID":"2020-055AF","LAUNCH_DATE":"2020-08-07","MEAN_ELEMENT_THEORY":"SGP4","TLE_LINE2":"2 46056  53.0546 271.3915 0002184  58.4095 301.7106 15.06390594 73640","RCS_SIZE":"LARGE","ARG_OF_PERICENTER":"58.4095","ELEMENT_SET_NO":"999","PERIAPSIS":"545.730","MEAN_MOTION_DDOT":"0.0000000000000","INCLINATION":"53.0546","TIME_SYSTEM":"UTC","CENTER_NAME":"EARTH","FILE":"3231147","EPHEMERIS_TYPE":"0","APOAPSIS":"548.755","REV_AT_EPOCH":"7364","SITE":"AFETR","SEMIMAJOR_AXIS":"6925.377","MEAN_MOTION_DOT":"0.00001274","EPOCH":"2021-12-02T13:07:32.878848","OBJECT_TYPE":"PAYLOAD","BSTAR":"0.00010447000000","GP_ID":"190952800","TLE_LINE1":"1 46056U 20055AF  21336.54690832  .00001274  00000-0  10447-3 0  9998","MEAN_ANOMALY":"301.7106","COUNTRY_CODE":"US","PERIOD":"95.593","DECAY_DATE":null,"ECCENTRICITY":"0.00021840","CLASSIFICATION_TYPE":"U"},{"OBJECT_ID":"2020-055AH","REF_FRAME":"TEME","NORAD_CAT_ID":"46058","OBJECT_NAME":"STARLINK-1564","MEAN_MOTION":"15.06401277","RA_OF_ASC_NODE":"271.3348","PERIAPSIS":"545.766","ELEMENT_SET_NO":"999","ARG_OF_PERICENTER":"64.8480","RCS_SIZE":"LARGE","TLE_LINE2":"2 46058  53.0548 271.3348 0002085  64.8480 295.2725 15.06401277 74188","MEAN_ELEMENT_THEORY":"SGP4","LAUNCH_DATE":"2020-08-07","FILE":"3230859","CENTER_NAME":"EARTH","TIME_SYSTEM":"UTC","MEAN_MOTION_DDOT":"0.0000000000000","INCLINATION":"53.0548","APOAPSIS":"548.654","EPHEMERIS_TYPE":"0","OBJECT_TYPE":"PAYLOAD","SEMIMAJOR_AXIS":"6925.345","MEAN_MOTION_DOT":"0.00000714","EPOCH":"2021-12-02T13:23:27.557376","REV_AT_EPOCH":"7418","SITE":"AFETR","TLE_LINE1":"1 46058U 20055AH  21336.55795784  .00000714  00000-0  66862-4 0  9994","GP_ID":"190943063","BSTAR":"0.00006686200000","DECAY_DATE":null,"PERIOD":"95.592","COUNTRY_CODE":"US","MEAN_ANOMALY":"295.2725","CLASSIFICATION_TYPE":"U","ECCENTRICITY":"0.00020850"},{"REV_AT_EPOCH":"7409","SITE":"AFETR","MEAN_MOTION_DOT":"0.00000819","SEMIMAJOR_AXIS":"6925.333","EPOCH":"2021-12-02T05:36:22.244256","OBJECT_TYPE":"PAYLOAD","BSTAR":"0.00007389700000","GP_ID":"190941811","TLE_LINE1":"1 46059U 20055AJ  21336.23359079  .00000819  00000-0  73897-4 0  9995","MEAN_ANOMALY":"326.8073","DECAY_DATE":null,"COUNTRY_CODE":"US","PERIOD":"95.592","CLASSIFICATION_TYPE":"U","ECCENTRICITY":"0.00020530","OBJECT_NAME":"STARLINK-1570","NORAD_CAT_ID":"46059","REF_FRAME":"TEME","MEAN_MOTION":"15.06405186","RA_OF_ASC_NODE":"272.8002","OBJECT_ID":"2020-055AJ","LAUNCH_DATE":"2020-08-07","MEAN_ELEMENT_THEORY":"SGP4","ARG_OF_PERICENTER":"33.3044","ELEMENT_SET_NO":"999","PERIAPSIS":"545.776","TLE_LINE2":"2 46059  53.0520 272.8002 0002053  33.3044 326.8073 15.06405186 74094","RCS_SIZE":"LARGE","TIME_SYSTEM":"UTC","INCLINATION":"53.0520","MEAN_MOTION_DDOT":"0.0000000000000","FILE":"3230859","CENTER_NAME":"EARTH","APOAPSIS":"548.619","EPHEMERIS_TYPE":"0"},{"PERIOD":"95.592","COUNTRY_CODE":"US","DECAY_DATE":null,"MEAN_ANOMALY":"299.5486","CLASSIFICATION_TYPE":"U","ECCENTRICITY":"0.00021280","OBJECT_TYPE":"PAYLOAD","SEMIMAJOR_AXIS":"6925.320","EPOCH":"2021-12-02T13:28:45.910272","MEAN_MOTION_DOT":"0.00005177","REV_AT_EPOCH":"7415","SITE":"AFETR","TLE_LINE1":"1 46060U 20055AK  21336.56164248  .00005177  00000-0  36609-3 0  9996","GP_ID":"190942061","BSTAR":"0.00036609000000","CENTER_NAME":"EARTH","FILE":"3230859","INCLINATION":"53.0543","MEAN_MOTION_DDOT":"0.0000000000000","TIME_SYSTEM":"UTC","EPHEMERIS_TYPE":"0","APOAPSIS":"548.659","OBJECT_ID":"2020-055AK","MEAN_MOTION":"15.06409278","RA_OF_ASC_NODE":"271.3248","REF_FRAME":"TEME","OBJECT_NAME":"STARLINK-1572","NORAD_CAT_ID":"46060","RCS_SIZE":"LARGE","TLE_LINE2":"2 46060  53.0543 271.3248 0002128  60.5716 299.5486 15.06409278 74155","PERIAPSIS":"545.711","ELEMENT_SET_NO":"999","ARG_OF_PERICENTER":"60.5716","MEAN_ELEMENT_THEORY":"SGP4","LAUNCH_DATE":"2020-08-07"},{"RCS_SIZE":"LARGE","TLE_LINE2":"2 46061  53.0545 271.3460 0002126  65.9898 294.1313 15.06404105 74189","PERIAPSIS":"545.729","ARG_OF_PERICENTER":"65.9898","ELEMENT_SET_NO":"999","MEAN_ELEMENT_THEORY":"SGP4","LAUNCH_DATE":"2020-08-07","OBJECT_ID":"2020-055AL","RA_OF_ASC_NODE":"271.3460","MEAN_MOTION":"15.06404105","REF_FRAME":"TEME","OBJECT_NAME":"STARLINK-1573","NORAD_CAT_ID":"46061","EPHEMERIS_TYPE":"0","APOAPSIS":"548.673","CENTER_NAME":"EARTH","FILE":"3230859","MEAN_MOTION_DDOT":"0.0000000000000","INCLINATION":"53.0545","TIME_SYSTEM":"UTC","TLE_LINE1":"1 46061U 20055AL  21336.55426882  .00000851  00000-0  76017-4 0  9993","GP_ID":"190942813","BSTAR":"0.00007601700000","OBJECT_TYPE":"PAYLOAD","MEAN_MOTION_DOT":"0.00000851","SEMIMAJOR_AXIS":"6925.336","EPOCH":"2021-12-02T13:18:08.826048","REV_AT_EPOCH":"7418","SITE":"AFETR","ECCENTRICITY":"0.00021260","CLASSIFICATION_TYPE":"U","PERIOD":"95.592","COUNTRY_CODE":"US","DECAY_DATE":null,"MEAN_ANOMALY":"294.1313"},{"OBJECT_TYPE":"PAYLOAD","SITE":"AFETR","REV_AT_EPOCH":"7414","SEMIMAJOR_AXIS":"6925.353","MEAN_MOTION_DOT":"0.00001020","EPOCH":"2021-12-02T12:30:23.193792","GP_ID":"190943564","TLE_LINE1":"1 46062U 20055AM  21336.52110178  .00001020  00000-0  87405-4 0  9991","BSTAR":"0.00008740500000","COUNTRY_CODE":"US","PERIOD":"95.592","DECAY_DATE":null,"MEAN_ANOMALY":"296.4410","CLASSIFICATION_TYPE":"U","ECCENTRICITY":"0.00020270","OBJECT_ID":"2020-055AM","MEAN_MOTION":"15.06398704","RA_OF_ASC_NODE":"271.5183","OBJECT_NAME":"STARLINK-1574","NORAD_CAT_ID":"46062","REF_FRAME":"TEME","TLE_LINE2":"2 46062  53.0559 271.5183 0002027  63.6787 296.4410 15.06398704 74147","RCS_SIZE":"LARGE","ELEMENT_SET_NO":"999","ARG_OF_PERICENTER":"63.6787","PERIAPSIS":"545.814","LAUNCH_DATE":"2020-08-07","MEAN_ELEMENT_THEORY":"SGP4","CENTER_NAME":"EARTH","FILE":"3230859","INCLINATION":"53.0559","MEAN_MOTION_DDOT":"0.0000000000000","TIME_SYSTEM":"UTC","EPHEMERIS_TYPE":"0","APOAPSIS":"548.621"},{"OBJECT_TYPE":"PAYLOAD","SEMIMAJOR_AXIS":"6925.366","EPOCH":"2021-12-02T12:25:05.165760","MEAN_MOTION_DOT":"-0.00000277","SITE":"AFETR","REV_AT_EPOCH":"7417","TLE_LINE1":"1 46063U 20055AN  21336.51742090 -.00000277  00000-0  28571-6 0  9990","GP_ID":"190942312","BSTAR":"0.00000028571000","PERIOD":"95.593","COUNTRY_CODE":"US","DECAY_DATE":null,"MEAN_ANOMALY":"300.5732","ECCENTRICITY":"0.00020910","CLASSIFICATION_TYPE":"U","OBJECT_ID":"2020-055AN","MEAN_MOTION":"15.06394245","RA_OF_ASC_NODE":"271.5290","REF_FRAME":"TEME","NORAD_CAT_ID":"46063","OBJECT_NAME":"STARLINK-1577","RCS_SIZE":"LARGE","TLE_LINE2":"2 46063  53.0545 271.5290 0002091  59.5463 300.5732 15.06394245 74171","PERIAPSIS":"545.783","ELEMENT_SET_NO":"999","ARG_OF_PERICENTER":"59.5463","MEAN_ELEMENT_THEORY":"SGP4","LAUNCH_DATE":"2020-08-07","CENTER_NAME":"EARTH","FILE":"3230859","INCLINATION":"53.0545","MEAN_MOTION_DDOT":"0.0000000000000","TIME_SYSTEM":"UTC","EPHEMERIS_TYPE":"0","APOAPSIS":"548.679"},{"ELEMENT_SET_NO":"999","ARG_OF_PERICENTER":"61.5362","PERIAPSIS":"545.875","TLE_LINE2":"2 46064  53.0542 270.1743 0001933  61.5362 298.5822 15.06399934 73694","RCS_SIZE":"LARGE","MEAN_ELEMENT_THEORY":"SGP4","LAUNCH_DATE":"2020-08-07","OBJECT_ID":"2020-055AP","NORAD_CAT_ID":"46064","OBJECT_NAME":"STARLINK-1583","REF_FRAME":"TEME","MEAN_MOTION":"15.06399934","RA_OF_ASC_NODE":"270.1743","APOAPSIS":"548.552","EPHEMERIS_TYPE":"0","FILE":"3230975","CENTER_NAME":"EARTH","TIME_SYSTEM":"UTC","MEAN_MOTION_DDOT":"0.0000000000000","INCLINATION":"53.0542","GP_ID":"190948588","TLE_LINE1":"1 46064U 20055AP  21336.81597035  .00002538  00000-0  18921-3 0  9997","BSTAR":"0.00018921000000","OBJECT_TYPE":"PAYLOAD","REV_AT_EPOCH":"7369","SITE":"AFETR","SEMIMAJOR_AXIS":"6925.349","MEAN_MOTION_DOT":"0.00002538","EPOCH":"2021-12-02T19:34:59.838240","CLASSIFICATION_TYPE":"U","ECCENTRICITY":"0.00019330","DECAY_DATE":null,"COUNTRY_CODE":"US","PERIOD":"95.592","MEAN_ANOMALY":"298.5822"},{"BSTAR":"0.00005156100000","GP_ID":"190943314","TLE_LINE1":"1 46065U 20055AQ  21336.47777224  .00000486  00000-0  51561-4 0  9998","SITE":"AFETR","REV_AT_EPOCH":"7443","EPOCH":"2021-12-02T11:27:59.521536","SEMIMAJOR_AXIS":"6925.356","MEAN_MOTION_DOT":"0.00000486","OBJECT_TYPE":"PAYLOAD","ECCENTRICITY":"0.00020000","CLASSIFICATION_TYPE":"U","MEAN_ANOMALY":"291.3906","DECAY_DATE":null,"COUNTRY_CODE":"US","PERIOD":"95.592","MEAN_ELEMENT_THEORY":"SGP4","LAUNCH_DATE":"2020-08-07","ELEMENT_SET_NO":"999","ARG_OF_PERICENTER":"68.7296","PERIAPSIS":"545.836","TLE_LINE2":"2 46065  53.0507 251.7266 0002000  68.7296 291.3906 15.06397563 74435","RCS_SIZE":"LARGE","NORAD_CAT_ID":"46065","OBJECT_NAME":"STARLINK-1515","REF_FRAME":"TEME","MEAN_MOTION":"15.06397563","RA_OF_ASC_NODE":"251.7266","OBJECT_ID":"2020-055AQ","APOAPSIS":"548.606","EPHEMERIS_TYPE":"0","TIME_SYSTEM":"UTC","MEAN_MOTION_DDOT":"0.0000000000000","INCLINATION":"53.0507","FILE":"3230859","CENTER_NAME":"EARTH"},{"OBJECT_TYPE":"PAYLOAD","MEAN_MOTION_DOT":"0.00000297","SEMIMAJOR_AXIS":"6925.362","EPOCH":"2021-12-02T17:56:48.743232","REV_AT_EPOCH":"7395","SITE":"AFETR","TLE_LINE1":"1 46066U 20055AR  21336.74778638  .00000297  00000-0  38859-4 0  9994","GP_ID":"190948501","BSTAR":"0.00003885900000","PERIOD":"95.592","COUNTRY_CODE":"US","DECAY_DATE":null,"MEAN_ANOMALY":"292.5698","ECCENTRICITY":"0.00019930","CLASSIFICATION_TYPE":"U","OBJECT_ID":"2020-055AR","MEAN_MOTION":"15.06395547","RA_OF_ASC_NODE":"250.4963","REF_FRAME":"TEME","NORAD_CAT_ID":"46066","OBJECT_NAME":"STARLINK-1525","RCS_SIZE":"LARGE","TLE_LINE2":"2 46066  53.0549 250.4963 0001993  67.5501 292.5698 15.06395547 73955","PERIAPSIS":"545.847","ELEMENT_SET_NO":"999","ARG_OF_PERICENTER":"67.5501","LAUNCH_DATE":"2020-08-07","MEAN_ELEMENT_THEORY":"SGP4","CENTER_NAME":"EARTH","FILE":"3230970","INCLINATION":"53.0549","MEAN_MOTION_DDOT":"0.0000000000000","TIME_SYSTEM":"UTC","EPHEMERIS_TYPE":"0","APOAPSIS":"548.607"}];
